ONEWEB-0520             
1 54138U 22138AB  24220.64535972  .00000111  00000+0  24525-3 0  9991
2 54138  87.9105  79.9670 0001493  66.6398 293.4892 13.19724848 88196
ONEWEB-0521             
1 54139U 22138AC  24220.67853410  .00000061  00000+0  12002-3 0  9996
2 54139  87.9103  79.9525 0002015  81.9632 278.1730 13.19724776 88175
ONEWEB-0522             
1 54140U 22138AD  24220.50636163  .00000106  00000+0  23295-3 0  9990
2 54140  87.9102  79.9887 0001653  81.2368 278.8952 13.19724520 87295
ONEWEB-0523             
1 54141U 22138AE  24220.47690760  .00000094  00000+0  19963-3 0  9993
2 54141  87.9184  49.4545 0002443 105.6916 254.4487 13.20770350 89713
ONEWEB-0524             
1 54142U 22138AF  24220.54162051  .00000127  00000+0  27953-3 0  9994
2 54142  87.9183  49.4448 0001668 125.7148 234.4140 13.20772562 89725
ONEWEB-0525             
1 54143U 22138AG  24220.67695225  .00000044  00000+0  77284-4 0  9994
2 54143  87.9106  79.9649 0001612  72.0827 288.0481 13.19724848 88206
ONEWEB-0526             
1 54144U 22138AH  24220.55847850  .00000127  00000+0  28443-3 0  9999
2 54144  87.9104  79.9828 0001642  80.3355 279.7963 13.19727178 87294
ONEWEB-0529             
1 54145U 22138AJ  24220.56164815  .00000088  00000+0  18716-3 0  9992
2 54145  87.9110  80.0008 0001536  72.4994 287.6307 13.19726000 87314
